STARLINK-37036          
1 68077U 26042J   26070.91667824 -.01496508  66584-3 -34979-2 0  9991
2 68077  53.1597 183.8466 0000982  64.4299 229.1532 15.96395426  2409
STARLINK-36973          
1 68078U 26042K   26070.91667824 -.01497414  66822-3 -34549-2 0  9997
2 68078  53.1598 183.8373 0000707  65.1933 232.8587 15.96633103  2404
STARLINK-37063          
1 68079U 26042L   26070.91667824 -.01496684  66678-3 -34764-2 0  9994
2 68079  53.1592 183.8424 0000944  63.2985 232.2989 15.96510426  2418
STARLINK-37051          
1 68080U 26042M   26070.91667824 -.01535638  70170-3 -34945-2 0  9992
2 68080  53.1595 183.8278 0000753  60.4867 242.0968 15.96890381  2413
STARLINK-37066          
1 68081U 26042N   26070.91667824 -.01494290  66649-3 -34253-2 0  9999
2 68081  53.1600 183.8323 0000888  61.9643 238.4566 15.96751071  2414
STARLINK-37054          
1 68082U 26042P   26070.91667824 -.01511123  68200-3 -34193-2 0  9993
2 68082  53.1595 183.8237 0000760  59.6293 244.8995 15.96989691  2414
STARLINK-37065          
1 68083U 26042Q   26070.91667824 -.01510878  68262-3 -33970-2 0  9990
2 68083  53.1598 183.8192 0000781  62.6485 244.0670 15.97105414  2414
STARLINK-37037          
1 68084U 26042R   26070.91667824 -.01521483  69234-3 -33975-2 0  9990
2 68084  53.1594 183.8145 0000657  60.4591 248.5908 15.97231169  2415
STARLINK-37068          
1 68085U 26042S   26070.91667824 -.01490343  66725-3 -33097-2 0  9998
2 68085  53.1595 183.8110 0000939  64.3489 246.3805 15.97325429  2416
STARLINK-37067          
1 68086U 26042T   26070.91667824 -.01516972  69022-3 -33451-2 0  9993
2 68086  53.1596 183.8058 0000760  64.9666 248.2953 15.97457890  2417
STARLINK-37062          
1 68087U 26042U   26070.91667824 -.01516187  69040-3 -33220-2 0  9996
2 68087  53.1596 183.8013 0000811  67.6417 247.7969 15.97573360  2412
STARLINK-37059          
1 68088U 26042V   26070.91667824 -.01512026  68776-3 -32916-2 0  9991
2 68088  53.1595 183.7962 0000865  61.3640 256.4970 15.97688546  2414
