CCSDS_OMM_VERS = 2.0
CREATION_DATE  = 
ORIGINATOR     = 

OBJECT_NAME    = STARLINK-37036
OBJECT_ID      = 2026-042J
CENTER_NAME    = EARTH
REF_FRAME      = TEME
TIME_SYSTEM    = UTC
MEAN_ELEMENT_THEORY = SGP/SGP4

EPOCH          = 2026-03-11T22:00:00.999936
MEAN_MOTION    = 15.96395426
ECCENTRICITY   = .00009823
INCLINATION    = 53.1597
RA_OF_ASC_NODE = 183.8466
ARG_OF_PERICENTER = 64.4299
MEAN_ANOMALY   = 229.1532

EPHEMERIS_TYPE = 0
CLASSIFICATION_TYPE = U
NORAD_CAT_ID   = 68077
ELEMENT_SET_NO = 999
REV_AT_EPOCH   = 240
BSTAR          = -.34978943E-2
MEAN_MOTION_DOT = -.1496508E-1
MEAN_MOTION_DDOT = .66584455E-3

CCSDS_OMM_VERS = 2.0
CREATION_DATE  = 
ORIGINATOR     = 

OBJECT_NAME    = STARLINK-36973
OBJECT_ID      = 2026-042K
CENTER_NAME    = EARTH
REF_FRAME      = TEME
TIME_SYSTEM    = UTC
MEAN_ELEMENT_THEORY = SGP/SGP4

EPOCH          = 2026-03-11T22:00:00.999936
MEAN_MOTION    = 15.96633103
ECCENTRICITY   = .00007079
INCLINATION    = 53.1598
RA_OF_ASC_NODE = 183.8373
ARG_OF_PERICENTER = 65.1933
MEAN_ANOMALY   = 232.8587

EPHEMERIS_TYPE = 0
CLASSIFICATION_TYPE = U
NORAD_CAT_ID   = 68078
ELEMENT_SET_NO = 999
REV_AT_EPOCH   = 240
BSTAR          = -.34548886E-2
MEAN_MOTION_DOT = -.1497414E-1
MEAN_MOTION_DDOT = .66822321E-3

CCSDS_OMM_VERS = 2.0
CREATION_DATE  = 
ORIGINATOR     = 

OBJECT_NAME    = STARLINK-37063
OBJECT_ID      = 2026-042L
CENTER_NAME    = EARTH
REF_FRAME      = TEME
TIME_SYSTEM    = UTC
MEAN_ELEMENT_THEORY = SGP/SGP4

EPOCH          = 2026-03-11T22:00:00.999936
MEAN_MOTION    = 15.96510426
ECCENTRICITY   = .0000944
INCLINATION    = 53.1592
RA_OF_ASC_NODE = 183.8424
ARG_OF_PERICENTER = 63.2985
MEAN_ANOMALY   = 232.2989

EPHEMERIS_TYPE = 0
CLASSIFICATION_TYPE = U
NORAD_CAT_ID   = 68079
ELEMENT_SET_NO = 999
REV_AT_EPOCH   = 241
BSTAR          = -.34763882E-2
MEAN_MOTION_DOT = -.1496684E-1
MEAN_MOTION_DDOT = .66677957E-3

CCSDS_OMM_VERS = 2.0
CREATION_DATE  = 
ORIGINATOR     = 

OBJECT_NAME    = STARLINK-37051
OBJECT_ID      = 2026-042M
CENTER_NAME    = EARTH
REF_FRAME      = TEME
TIME_SYSTEM    = UTC
MEAN_ELEMENT_THEORY = SGP/SGP4

EPOCH          = 2026-03-11T22:00:00.999936
MEAN_MOTION    = 15.96890381
ECCENTRICITY   = .00007538
INCLINATION    = 53.1595
RA_OF_ASC_NODE = 183.8278
ARG_OF_PERICENTER = 60.4867
MEAN_ANOMALY   = 242.0968

EPHEMERIS_TYPE = 0
CLASSIFICATION_TYPE = U
NORAD_CAT_ID   = 68080
ELEMENT_SET_NO = 999
REV_AT_EPOCH   = 241
BSTAR          = -.34945484E-2
MEAN_MOTION_DOT = -.1535638E-1
MEAN_MOTION_DDOT = .70169583E-3

CCSDS_OMM_VERS = 2.0
CREATION_DATE  = 
ORIGINATOR     = 

OBJECT_NAME    = STARLINK-37066
OBJECT_ID      = 2026-042N
CENTER_NAME    = EARTH
REF_FRAME      = TEME
TIME_SYSTEM    = UTC
MEAN_ELEMENT_THEORY = SGP/SGP4

EPOCH          = 2026-03-11T22:00:00.999936
MEAN_MOTION    = 15.96751071
ECCENTRICITY   = .00008886
INCLINATION    = 53.1600
RA_OF_ASC_NODE = 183.8323
ARG_OF_PERICENTER = 61.9643
MEAN_ANOMALY   = 238.4566

EPHEMERIS_TYPE = 0
CLASSIFICATION_TYPE = U
NORAD_CAT_ID   = 68081
ELEMENT_SET_NO = 999
REV_AT_EPOCH   = 241
BSTAR          = -.34252967E-2
MEAN_MOTION_DOT = -.149429E-1
MEAN_MOTION_DDOT = .66648653E-3

CCSDS_OMM_VERS = 2.0
CREATION_DATE  = 
ORIGINATOR     = 

OBJECT_NAME    = STARLINK-37054
OBJECT_ID      = 2026-042P
CENTER_NAME    = EARTH
REF_FRAME      = TEME
TIME_SYSTEM    = UTC
MEAN_ELEMENT_THEORY = SGP/SGP4

EPOCH          = 2026-03-11T22:00:00.999936
MEAN_MOTION    = 15.96989691
ECCENTRICITY   = .00007605
INCLINATION    = 53.1595
RA_OF_ASC_NODE = 183.8237
ARG_OF_PERICENTER = 59.6293
MEAN_ANOMALY   = 244.8995

EPHEMERIS_TYPE = 0
CLASSIFICATION_TYPE = U
NORAD_CAT_ID   = 68082
ELEMENT_SET_NO = 999
REV_AT_EPOCH   = 241
BSTAR          = -.34192868E-2
MEAN_MOTION_DOT = -.1511123E-1
MEAN_MOTION_DDOT = .68199766E-3

CCSDS_OMM_VERS = 2.0
CREATION_DATE  = 
ORIGINATOR     = 

OBJECT_NAME    = STARLINK-37065
OBJECT_ID      = 2026-042Q
CENTER_NAME    = EARTH
REF_FRAME      = TEME
TIME_SYSTEM    = UTC
MEAN_ELEMENT_THEORY = SGP/SGP4

EPOCH          = 2026-03-11T22:00:00.999936
MEAN_MOTION    = 15.97105414
ECCENTRICITY   = .00007814
INCLINATION    = 53.1598
RA_OF_ASC_NODE = 183.8192
ARG_OF_PERICENTER = 62.6485
MEAN_ANOMALY   = 244.0670

EPHEMERIS_TYPE = 0
CLASSIFICATION_TYPE = U
NORAD_CAT_ID   = 68083
ELEMENT_SET_NO = 999
REV_AT_EPOCH   = 241
BSTAR          = -.33969935E-2
MEAN_MOTION_DOT = -.1510878E-1
MEAN_MOTION_DDOT = .68261826E-3

CCSDS_OMM_VERS = 2.0
CREATION_DATE  = 
ORIGINATOR     = 

OBJECT_NAME    = STARLINK-37037
OBJECT_ID      = 2026-042R
CENTER_NAME    = EARTH
REF_FRAME      = TEME
TIME_SYSTEM    = UTC
MEAN_ELEMENT_THEORY = SGP/SGP4

EPOCH          = 2026-03-11T22:00:00.999936
MEAN_MOTION    = 15.97231169
ECCENTRICITY   = .00006577
INCLINATION    = 53.1594
RA_OF_ASC_NODE = 183.8145
ARG_OF_PERICENTER = 60.4591
MEAN_ANOMALY   = 248.5908

EPHEMERIS_TYPE = 0
CLASSIFICATION_TYPE = U
NORAD_CAT_ID   = 68084
ELEMENT_SET_NO = 999
REV_AT_EPOCH   = 241
BSTAR          = -.3397533E-2
MEAN_MOTION_DOT = -.1521483E-1
MEAN_MOTION_DDOT = .69233764E-3

CCSDS_OMM_VERS = 2.0
CREATION_DATE  = 
ORIGINATOR     = 

OBJECT_NAME    = STARLINK-37068
OBJECT_ID      = 2026-042S
CENTER_NAME    = EARTH
REF_FRAME      = TEME
TIME_SYSTEM    = UTC
MEAN_ELEMENT_THEORY = SGP/SGP4

EPOCH          = 2026-03-11T22:00:00.999936
MEAN_MOTION    = 15.97325429
ECCENTRICITY   = .0000939
INCLINATION    = 53.1595
RA_OF_ASC_NODE = 183.8110
ARG_OF_PERICENTER = 64.3489
MEAN_ANOMALY   = 246.3805

EPHEMERIS_TYPE = 0
CLASSIFICATION_TYPE = U
NORAD_CAT_ID   = 68085
ELEMENT_SET_NO = 999
REV_AT_EPOCH   = 241
BSTAR          = -.33097144E-2
MEAN_MOTION_DOT = -.1490343E-1
MEAN_MOTION_DDOT = .66724553E-3

CCSDS_OMM_VERS = 2.0
CREATION_DATE  = 
ORIGINATOR     = 

OBJECT_NAME    = STARLINK-37067
OBJECT_ID      = 2026-042T
CENTER_NAME    = EARTH
REF_FRAME      = TEME
TIME_SYSTEM    = UTC
MEAN_ELEMENT_THEORY = SGP/SGP4

EPOCH          = 2026-03-11T22:00:00.999936
MEAN_MOTION    = 15.97457890
ECCENTRICITY   = .00007606
INCLINATION    = 53.1596
RA_OF_ASC_NODE = 183.8058
ARG_OF_PERICENTER = 64.9666
MEAN_ANOMALY   = 248.2953

EPHEMERIS_TYPE = 0
CLASSIFICATION_TYPE = U
NORAD_CAT_ID   = 68086
ELEMENT_SET_NO = 999
REV_AT_EPOCH   = 241
BSTAR          = -.33450985E-2
MEAN_MOTION_DOT = -.1516972E-1
MEAN_MOTION_DDOT = .69021582E-3

CCSDS_OMM_VERS = 2.0
CREATION_DATE  = 
ORIGINATOR     = 

OBJECT_NAME    = STARLINK-37062
OBJECT_ID      = 2026-042U
CENTER_NAME    = EARTH
REF_FRAME      = TEME
TIME_SYSTEM    = UTC
MEAN_ELEMENT_THEORY = SGP/SGP4

EPOCH          = 2026-03-11T22:00:00.999936
MEAN_MOTION    = 15.97573360
ECCENTRICITY   = .00008117
INCLINATION    = 53.1596
RA_OF_ASC_NODE = 183.8013
ARG_OF_PERICENTER = 67.6417
MEAN_ANOMALY   = 247.7969

EPHEMERIS_TYPE = 0
CLASSIFICATION_TYPE = U
NORAD_CAT_ID   = 68087
ELEMENT_SET_NO = 999
REV_AT_EPOCH   = 241
BSTAR          = -.3322006E-2
MEAN_MOTION_DOT = -.1516187E-1
MEAN_MOTION_DDOT = .69039796E-3

CCSDS_OMM_VERS = 2.0
CREATION_DATE  = 
ORIGINATOR     = 

OBJECT_NAME    = STARLINK-37059
OBJECT_ID      = 2026-042V
CENTER_NAME    = EARTH
REF_FRAME      = TEME
TIME_SYSTEM    = UTC
MEAN_ELEMENT_THEORY = SGP/SGP4

EPOCH          = 2026-03-11T22:00:00.999936
MEAN_MOTION    = 15.97688546
ECCENTRICITY   = .00008658
INCLINATION    = 53.1595
RA_OF_ASC_NODE = 183.7962
ARG_OF_PERICENTER = 61.3640
MEAN_ANOMALY   = 256.4970

EPHEMERIS_TYPE = 0
CLASSIFICATION_TYPE = U
NORAD_CAT_ID   = 68088
ELEMENT_SET_NO = 999
REV_AT_EPOCH   = 241
BSTAR          = -.32916438E-2
MEAN_MOTION_DOT = -.1512026E-1
MEAN_MOTION_DDOT = .68776068E-3

